OBJECT_NAME,OBJECT_ID,EPOCH,MEAN_MOTION,ECCENTRICITY,INCLINATION,RA_OF_ASC_NODE,ARG_OF_PERICENTER,MEAN_ANOMALY,EPHEMERIS_TYPE,CLASSIFICATION_TYPE,NORAD_CAT_ID,ELEMENT_SET_NO,REV_AT_EPOCH,BSTAR,MEAN_MOTION_DOT,MEAN_MOTION_DDOT
TIANMU-1 20,2023-208B,2026-06-05T07:29:00.212928,15.32577604,.00071212,97.4438,273.1765,18.3586,341.7912,0,U,58661,999,13560,.24902322E-3,.776E-4,0
TIANMU-1 21,2023-208C,2026-06-05T07:37:46.794144,15.34856147,.00069618,97.4496,275.8123,11.1628,348.9768,0,U,58662,999,13574,.27410845E-3,.9191E-4,0
TIANMU-1 22,2023-208D,2026-06-05T05:49:18.905088,15.30882710,.0004315,97.4491,272.4299,42.9298,317.2279,0,U,58663,999,13550,.24364474E-3,.7195E-4,0
TIANMU-1 15,2024-004A,2026-06-05T07:16:15.826944,15.26894236,.00078278,97.4672,342.4919,41.5341,318.6492,0,U,58700,999,13396,.21502888E-3,.5609E-4,0
TIANMU-1 16,2024-004B,2026-06-05T06:57:40.936032,15.26619627,.00069261,97.4619,341.7294,46.1140,314.0670,0,U,58701,999,13396,.21192985E-3,.5481E-4,0
TIANMU-1 17,2024-004C,2026-06-05T06:36:43.707168,15.26619439,.00065895,97.4647,342.1954,51.5035,308.6794,0,U,58702,999,13395,.22017374E-3,.5696E-4,0
TIANMU-1 18,2024-004D,2026-06-05T07:39:59.812128,15.26879097,.00050765,97.4663,342.4872,50.4036,309.7650,0,U,58703,999,13396,.21583235E-3,.5625E-4,0
INSAT-3DS,2024-033A,2026-06-05T01:55:44.501088,1.00270662,.00015605,0.0096,304.2430,124.4339,295.8388,0,U,58990,999,4694,0,-.143E-5,0
METEOR-M2 4,2024-039A,2026-06-05T07:05:41.873856,14.22428278,.00065776,98.7006,115.7435,195.6527,164.4448,0,U,59051,999,11757,.28682129E-4,.2E-6,0
GOES 19,2024-119A,2026-06-05T06:18:58.765824,1.00271294,.00006741,0.0450,132.5881,1.9530,138.7154,0,U,60133,999,684,0,-.236E-5,0
MTG-S1,2025-143A,2026-06-05T06:39:19.316160,1.00271622,.00011656,0.6139,336.3314,37.0544,336.6816,0,U,64723,999,330,0,-.2E-6,0
METOP-SGA1,2025-172A,2026-06-05T02:27:34.473312,14.21507731,.00009769,98.6647,216.0502,86.3817,273.7472,0,U,65159,999,4207,.44614603E-4,.54E-6,0
FENGYUN 3H,2025-219A,2026-06-05T06:33:23.610816,14.19918240,.00016427,98.6765,97.2741,87.2364,272.9001,0,U,65815,999,3569,.51553851E-4,.66E-6,0
