TIANMU-1 20             
1 58661U 23208B   26156.31180802  .00007760  00000+0  24902-3 0  9993
2 58661  97.4438 273.1765 0007121  18.3586 341.7912 15.32577604135608
TIANMU-1 21             
1 58662U 23208C   26156.31790271  .00009191  00000+0  27411-3 0  9999
2 58662  97.4496 275.8123 0006961  11.1628 348.9768 15.34856147135746
TIANMU-1 22             
1 58663U 23208D   26156.24257992  .00007195  00000+0  24364-3 0  9996
2 58663  97.4491 272.4299 0004315  42.9298 317.2279 15.30882710135506
TIANMU-1 15             
1 58700U 24004A   26156.30296096  .00005609  00000+0  21503-3 0  9998
2 58700  97.4672 342.4919 0007827  41.5341 318.6492 15.26894236133962
TIANMU-1 16             
1 58701U 24004B   26156.29005713  .00005481  00000+0  21193-3 0  9994
2 58701  97.4619 341.7294 0006926  46.1140 314.0670 15.26619627133966
TIANMU-1 17             
1 58702U 24004C   26156.27550587  .00005696  00000+0  22017-3 0  9991
2 58702  97.4647 342.1954 0006589  51.5035 308.6794 15.26619439133950
TIANMU-1 18             
1 58703U 24004D   26156.31944227  .00005625  00000+0  21583-3 0  9994
2 58703  97.4663 342.4872 0005076  50.4036 309.7650 15.26879097133962
INSAT-3DS               
1 58990U 24033A   26156.08037617 -.00000143  00000+0  00000+0 0  9992
2 58990   0.0096 304.2430 0001560 124.4339 295.8388  1.00270662 46942
METEOR-M2 4             
1 59051U 24039A   26156.29562354  .00000020  00000+0  28682-4 0  9995
2 59051  98.7006 115.7435 0006577 195.6527 164.4448 14.22428278117570
GOES 19                 
1 60133U 24119A   26156.26318016 -.00000236  00000+0  00000+0 0  9997
2 60133   0.0450 132.5881 0000674   1.9530 138.7154  1.00271294  6840
MTG-S1                  
1 64723U 25143A   26156.27730690 -.00000020  00000+0  00000+0 0  9992
2 64723   0.6139 336.3314 0001165  37.0544 336.6816  1.00271622  3302
METOP-SGA1              
1 65159U 25172A   26156.10248233  .00000054  00000+0  44615-4 0  9998
2 65159  98.6647 216.0502 0000976  86.3817 273.7472 14.21507731 42075
FENGYUN 3H              
1 65815U 25219A   26156.27318994  .00000066  00000+0  51554-4 0  9992
2 65815  98.6765  97.2741 0001642  87.2364 272.9001 14.19918240 35694
